#dP2023 10 31  6  0  0.00000000      96 __u+U IGS20 EXT  IAC
## 2286 194400.00000000   900.00000000 60248 0.2500000000000
+  119   C06C07C08C09C10C11C12C13C14C16C19C20C21C22C23C24C25
+        C26C27C28C29C30C32C33C34C35C36C37C38C39C40C41C42C43
+        C44C45C46E02E03E04E05E07E08E09E10E11E12E13E14E15E19
+        E21E24E25E26E27E30E31E33E34E36G01G02G03G04G05G06G07
+        G08G09G10G11G12G13G14G15G16G17G18G19G20G21G22G23G24
+        G25G26G27G28G29G30G31G32J02J03J04R01R02R03R04R05R07
+        R08R09R11R12R13R14R15R16R17R18R19R20R21R22R24R25R26
++        10  9  9  9 10  8 10  9  8 10  9  8  9  9  9  9  9
++         8  9  8  8  9  9  8  8  9  8  9  9 10 10  8  9  9
++         8  9  8  9  8  8  8  8  8  8  8  8  8  8  9  8  8
++         8 10  9  8  8  8 10  8  8  8  8  8  8  8  8  8  8
++         8  8  8  8  9  8  8  8  8  8  7  8  8  8  8  8  8
++         8  8  8  8  8  8  8  8 10 11 10  8  8  8  8  8  8
++         9 10  8 10  8 10  9  9  8  7  9  8  7  8  8  8  8
%c M  cc GPS ccc cccc cccc cccc cccc ccccc ccccc ccccc ccccc
%c cc cc ccc ccc cccc cccc cccc cccc ccccc ccccc ccccc ccccc
%f  0.0000000  0.000000000  0.00000000000  0.000000000000000
%f  0.0000000  0.000000000  0.00000000000  0.000000000000000
%i    0    0    0    0      0      0      0      0         0
%i    0    0    0    0      0      0      0      0         0
/* IAC                                ULTRA-RAPID PREDICTION
/* S/V CLOCKS ARE ALIGNED TO GNSS TIME                      
/* G:C1WC2W R:C1PC2P E:C1XC5X C:C2IC6I J:C1CC2S             
/* PCV:IGS20_2280 OL/AL:FES2004  NONE     YN ORB:CoN CLK:CoN
*  2023 11 01  3  0  0.00000000
PC06  -5843.864990  40319.126593  11432.301845     79.345090
PC07  -8559.946944  26086.785866 -31913.452936   -247.547720
PC08 -20232.079079  29576.548816  22035.008140    265.911862
PC09  -1941.220108  42320.512320   3616.219205    -31.135680
PC10    891.606676  28174.373287 -30933.147862     -0.979204
PC11 -16358.526111 -15919.116083 -15994.897830    232.967596
PC12  -8317.408653 -26626.094510   1076.260810    875.695185
PC13 -13450.989054  30178.136706  26168.872823    376.074778
PC14 -25504.425884  -9104.526808  -6840.103548    695.980701
PC16  -8698.169780  38301.985888  16001.927579   -153.268073
PC19  27617.634342   3111.732372  -2410.722793   -974.335902
PC20  20541.990939  12984.252987  13699.255077    155.602609
PC21   -359.116752 -15873.358668 -22945.068838   -969.082231
PC22  19183.335837  -9124.536610 -18099.134066   -243.333870
PC23 -20346.968477  18321.100924   5371.693455   -831.241835
PC24  -8079.291298 -15109.081924  22017.369893    551.481306
PC25 -20200.476811   3571.413817  18898.149610    245.515423
PC26   7418.318515 -23808.798570  12544.242705   -199.810002
PC27   2525.032148  26241.698594  -9175.115481    221.626418
PC28  -9612.981003  16074.753396 -20675.414756    167.024588
PC29  17832.609126   5285.614857  20802.034581    195.330650
PC30  14568.584849  22670.936577   7277.787959     -7.514689
PC32    311.765319  15867.486196  22959.010092   -532.275924
PC33 -27653.316602  -3002.919956   2305.846608   -948.354383
PC34 -15195.511830 -21754.172665  -8619.396579    293.528990
PC35   8999.533680 -16545.488662  20574.466208    512.837149
PC36  19988.112102  -2282.888299 -19324.772390   -154.231649
PC37  -8527.333332  23701.774580 -11971.291167   -871.271686
PC38 -25157.649394  30654.085072  14101.779494    114.800707
PC39  -9279.966638  35986.196838  20192.787060     -5.487855
PC40 -12721.545093  19680.765289 -35040.839868    -42.273390
PC41 -19793.228422   8825.743285  17627.755642   -871.623163
PC42 -19383.689889 -13530.622014 -14811.944768   -508.893817
PC43 -18031.138459  -6239.420941 -20363.429979     46.358569
PC44  -3336.843891 -26087.892610   9282.905308    279.027684
PC45  20183.877559 -18672.636425  -4853.807733    -41.767375
PC46   9009.453602  14065.055949 -22354.988540    -96.262889
PE02  17436.556128  10214.580349 -21636.713262     74.687201
PE03  21655.311710  20171.036613    287.423050    -69.973972
PE04 -23634.834832  -5611.882589  16911.097119   -247.214866
PE05   7135.217471  22976.824403  17239.327113     33.005968
PE07  12043.185501 -12010.886766 -24228.206352    -85.388609
PE08  23719.364407   6138.281111 -16612.316847   -170.098616
PE09 -12066.494729  11787.146820  24317.293807   -211.644473
PE10 -16449.902628  13809.133461 -20363.529320   -575.452900
PE11 -13529.169896  23140.315114 -12565.060217   3159.663278
PE12 -16760.046571   3323.172304 -24170.025983   -758.973783
PE13  13749.927390 -22642.800338  13217.190692    -19.610122
PE14 -19511.921488   7711.088658 -23054.859140    384.896086
PE15  16632.513603  -2796.818673  24334.765654    -65.815306
PE19 -20311.650323 -21359.536636  -2688.793163  -1307.655901
PE21   2810.846624 -17786.569708  23495.354693   -561.784210
PE24 -22772.828093  15137.047482 -11314.749329   -406.899578
PE25  -3226.039494  17839.424061 -23390.637543     -3.781003
PE26   2404.846610 -28870.094830  -6096.180106    267.827799
PE27  22386.319404 -15397.213770  11764.610142   -188.691504
PE30  28522.587779  -3594.258474  -7094.813990   -625.709356
PE31 -28540.670567   3951.340902   6777.183835     -9.130521
PE33  -9389.347724 -18952.501909 -20707.749152      1.430464
PE34   9777.487885  18365.674316  21046.923634    -75.486226
PE36  -2863.084826  28949.088131   5474.260710   -137.793969
PG01  13837.784384 -17343.102631  13994.906230    163.281642
PG02  14958.060667 -11612.218556  19052.243666   -534.829895
PG03  22027.005577 -12381.601608  -8144.919766    -43.598393
PG04  12039.249185  -9349.267983 -21748.389597    200.427730
PG05 -25527.112973   4737.686783  -6015.878845   -148.668909
PG06  -7514.657049 -18224.633441 -17685.965846    517.343075
PG07   4848.014614 -25821.593773   1590.916719     25.288899
PG08  18937.547956   -921.418405  18685.515441   -149.955851
PG09   1872.121225 -17327.208177 -20117.123463    -16.130660
PG10   7977.631738  12944.861564  21994.919224    -59.599504
PG11 -13839.711877  -6302.952087 -21757.721218   -440.540194
PG12 -23728.341382  10097.686330  -6476.146530   -442.112781
PG13 -20293.401245  -9761.014011  14050.994884    590.363423
PG14  -3840.901881 -15027.496836  21582.076956    230.420752
PG15 -18172.779454   4119.912268  18522.273086     92.694913
PG16  24646.681196   2255.510241 -10549.755885   -429.785303
PG17 -10698.983805 -21947.895063  10733.083981    723.566196
PG18  -4432.969553  25918.834430   2962.367856   -465.970387
PG19 -16694.000922 -20832.760470   1497.472872    392.742899
PG20 -20620.715824  -2655.818484 -16374.887210    403.921450
PG21  15503.217740  -7222.557970  20585.394961    145.416609
PG22 -10739.544967 -12730.499358  21079.922359     92.253152
PG23  -6212.962319  16334.085237  19954.907723     91.567717
PG24 -14616.356760  13298.406882  17153.915845   -360.388176
PG25 -13575.431940  16375.641345 -16056.926026    475.374780
PG26  18614.170635   7008.750342 -17899.376251    219.654504
PG27  22129.673482  11344.269746   9640.329520    -63.544358
PG28   7526.899594  19806.936242 -16040.870121    -36.565852
PG29  -3384.085207  16742.892985 -20354.188943   -610.224398
PG30  -2438.320736 -24080.843309  10749.623873   -472.924431
PG31  12294.603004  11301.480754 -20760.396662   -225.275791
PG32  15200.242826  20753.749020   7209.850087   -580.188989
PJ02 -33868.126532  18758.567838 -11994.125898     -6.750337
PJ03 -20669.419618  29378.616120 -17431.642272     -6.767144
PJ04 -28051.102100  27035.964869  22105.182914     71.791337
PR01  23529.041126   3302.768846  -9281.390812     68.861957
PR02  12002.036249  -6246.447038 -21602.743224    -22.352577
PR03  -6221.050897 -12878.312886 -21064.937650     88.167215
PR04 -20476.959485 -12230.747392  -8992.442760    209.207518
PR05 -23677.411112  -5093.933777   7961.329844    121.529887
PR07   7158.407699  13076.680398  20747.862691     68.132524
PR08  20652.097337  12128.268015   8887.733659    -73.120615
PR09 -17998.084138  17880.065058  -3015.570957    150.756954
PR11   8042.217835   7477.692871 -23012.462156   -210.034508
PR12  19768.149696  -7827.715016 -14081.027829     32.954755
PR13  19057.812536 -16937.651487    823.258756    -40.795273
PR14   6280.124388 -16881.745132  18065.086486     25.506162
PR15  -9241.835468  -6584.904823  22863.743520     84.989464
PR16 -19582.769767   7780.899688  14408.110002     20.213831
PR17  -2914.554765 -25227.296830   2673.211470     30.845552
PR18  -9144.667358 -19612.855154 -13449.875110    109.707000
PR19 -10760.556408  -5978.086990 -22337.139262   -252.988613
PR20  -6407.762396  16145.805272 -18679.204934   -102.751651
PR21   3099.073000  25231.406108  -1872.300709    -49.916735
PR22   9105.674326  19152.246922  14211.855658     91.384089
PR24   5935.740856 -16914.946949  18180.801770    -30.406118
PR25   1802.305487  25295.813011  -2612.998317     -6.507760
PR26  20396.205104  12112.230246   9369.970396    -18.545432
EOF
